QIANFAN-17              
1 60395U 24140S   25214.15766661  .00000123  00000+0  17262-3 0  9992
2 60395  88.9855 313.1206 0013887 221.8260 138.1831 13.50961079 49382
QIANFAN-18              
1 60396U 24140T   25214.21127835  .00000101  00000+0  13841-3 0  9999
2 60396  88.9847 312.6590 0013844 203.0917 156.9613 13.50956530 49627
QIANFAN-19              
1 61552U 24185A   25213.84584713  .00000269  00000+0  13405-3 0  9994
2 61552  88.9807  93.1892 0008238  27.8119 332.3506 14.14114980 50888
QIANFAN-20              
1 61553U 24185B   25213.93287959  .00000302  00000+0  16720-3 0  9998
2 61553  88.9807  93.3690 0008029  57.0048 303.1907 14.08667198 50799
QIANFAN-21              
1 61554U 24185C   25213.86885042  .00000492  00000+0  21474-3 0  9990
2 61554  88.9720  92.5623 0013149  76.6290 283.6366 14.22361536 51083
QIANFAN-22              
1 61555U 24185D   25213.83318402  .00000129  00000+0  99832-4 0  9990
2 61555  88.9792  93.8265 0008620  50.3433 309.8498 13.86236214 50523
QIANFAN-23              
1 61556U 24185E   25213.93695674  .00000386  00000+0  18830-3 0  9994
2 61556  88.9799  93.0498 0009491  36.8079 323.3759 14.16086319 50954
QIANFAN-24              
1 61557U 24185F   25213.84318603  .00000561  00000+0  23996-3 0  9993
2 61557  88.9780  92.6833 0010717  24.5296 335.6403 14.23564580 51111
